GLOBALSTAR M075 [+]     
1 37192U 10054E   24046.96773936 -.00000086  00000+0  98313-4 0  9990
2 37192  51.9919 225.0158 0000802  88.7242  76.4760 12.62270742614477
GLOBALSTAR M073 [+]     
1 37193U 10054F   24046.96871620 -.00000085  00000+0  10512-3 0  9993
2 37193  52.0084 138.4576 0000826 109.3152  62.5888 12.62260074616353
GLOBALSTAR M083 [+]     
1 37739U 11033A   24047.10654054 -.00000102  00000+0  99479-5 0  9995
2 37739  51.9856  87.4346 0000455 148.3634 229.5364 12.62265976585702
GLOBALSTAR M088 [+]     
1 37740U 11033B   24047.15819674 -.00000086  00000+0  98699-4 0  9996
2 37740  51.9763 353.1783 0000197  53.8714 319.4406 12.62264773581189
GLOBALSTAR M091 [+]     
1 37741U 11033C   24047.52305816 -.00000078  00000+0  14614-3 0  9991
2 37741  52.0014 314.7541 0000336  55.6649 116.1342 12.62271295581984
GLOBALSTAR M085 [+]     
1 37742U 11033D   24047.02958105 -.00000084  00000+0  11223-3 0  9992
2 37742  51.9851 267.7272 0000594  78.2726  69.4806 12.62267911582664
GLOBALSTAR M081 [+]     
1 37743U 11033E   24047.05948738 -.00000079  00000+0  13770-3 0  9990
2 37743  51.9943 270.1219 0000617  57.8462 106.3042 12.62269735582706
GLOBALSTAR M089 [+]     
1 37744U 11033F   24046.74937230 -.00000083  00000+0  11818-3 0  9997
2 37744  51.9902 225.3833 0001110  73.8002 300.3209 12.62254566583138
